[{"OBJECT_NAME":"UHETSAT","OBJECT_ID":"2023-185E","EPOCH":"2026-03-09T22:39:26.455680","MEAN_MOTION":15.29797662,"ECCENTRICITY":0.00118435,"INCLINATION":97.3584,"RA_OF_ASC_NODE":137.3576,"ARG_OF_PERICENTER":307.7346,"MEAN_ANOMALY":52.2821,"EPHEMERIS_TYPE":0,"CLASSIFICATION_TYPE":"U","NORAD_CAT_ID":58466,"ELEMENT_SET_NO":999,"REV_AT_EPOCH":12611,"BSTAR":0.00030513019,"MEAN_MOTION_DOT":8.749e-5,"MEAN_MOTION_DDOT":0},{"OBJECT_NAME":"STARLINK-34289","OBJECT_ID":"2025-117Y","EPOCH":"2026-03-09T08:26:05.928000","MEAN_MOTION":15.30200079,"ECCENTRICITY":0.00011185,"INCLINATION":53.1597,"RA_OF_ASC_NODE":41.1902,"ARG_OF_PERICENTER":88.7771,"MEAN_ANOMALY":271.3357,"EPHEMERIS_TYPE":0,"CLASSIFICATION_TYPE":"U","NORAD_CAT_ID":64225,"ELEMENT_SET_NO":999,"REV_AT_EPOCH":4450,"BSTAR":0.00064477026,"MEAN_MOTION_DOT":0.00018785,"MEAN_MOTION_DDOT":0}]
